GLOBALSTAR M063         
1 26081U 00008A   25210.72256951 -.00000074  00000+0  12315-3 0  9998
2 26081  51.9980 359.5492 0005042  47.0232  54.4056 11.86173903162627
GLOBALSTAR M062         
1 26082U 00008B   25210.90764562 -.00000007  00000+0  65464-3 0  9990
2 26082  51.9874 330.1555 0007250 197.4493 322.6061 12.43471590501931
GLOBALSTAR M060         
1 26083U 00008C   25210.60382234 -.00000173  00000+0 -81888-3 0  9993
2 26083  52.0033 297.0585 0003520 203.5580 304.4669 12.17661952157536
GLOBALSTAR M064         
1 26084U 00008D   25210.86604849 -.00000055  00000+0  40714-3 0  9992
2 26084  52.0035  97.4960 0001632 112.2809 247.8197 11.88535512172172
GLOBALSTAR M065         
1 31571U 07020A   25211.09588799 -.00000092  00000+0  67417-4 0  9992
2 31571  51.9895  95.6671 0010763  44.5821 120.8548 12.62010272839136
GLOBALSTAR M069         
1 31573U 07020C   25210.96765839 -.00000060  00000+0  29768-3 0  9992
2 31573  51.9955  84.1325 0000430 197.3770 176.3960 12.23447817839291
GLOBALSTAR M072         
1 31574U 07020D   25210.81320388 -.00000082  00000+0  34507-4 0  9995
2 31574  51.9903 238.4912 0000937  53.9601 116.8799 11.91650904836544
GLOBALSTAR M071         
1 31576U 07020F   25210.96209262  .00000003  00000+0  92503-3 0  9991
2 31576  52.0060 110.9671 0000408 136.8759 307.5868 12.18256346500159
